0 FENGYUN 1C DEB
1 30418U 99025AEH 13282.20809147  .00003922  00000-0  76650-3 0  9227
2 30418 098.8448 065.0540 0179772 117.2613 006.9244 14.53694511356113
0 FENGYUN 1C DEB
1 30418U 99025AEH 13283.36053794  .00003520  00000-0  68923-3 0  9233
2 30418 098.8445 066.2712 0179706 113.7808 278.0164 14.53702945356280
0 FENGYUN 1C DEB
1 30418U 99025AEH 13285.86287177  .00003182  00000-0  62403-3 0  9257
2 30418 098.8444 068.9138 0179698 106.2168 053.5893 14.53716607356641
0 FENGYUN 1C DEB
1 30418U 99025AEH 13287.08205769  .00002789  00000-0  54821-3 0  9268
2 30418 098.8444 070.2017 0179700 102.5335 314.0546 14.53723059356821
0 FENGYUN 1C DEB
1 30418U 99025AEH 13288.11480611  .00004474  00000-0  87225-3 0  9272
2 30418 098.8449 071.2927 0179652 099.4191 318.8387 14.53732741356976
0 FENGYUN 1C DEB
1 30418U 99025AEH 13289.34875201  .00003850  00000-0  75216-3 0  9286
2 30418 098.8449 072.5959 0179622 095.6831 296.6311 14.53740705357151
0 FENGYUN 1C DEB
1 30418U 99025AEH 13290.38060351  .00004200  00000-0  81941-3 0  9297
2 30418 098.8452 073.6859 0179594 092.5657 296.7952 14.53746751357302
0 FENGYUN 1C DEB
1 30418U 99025AEH 13291.63907436  .00003371  00000-0  65986-3 0  9301
2 30418 098.8458 075.0152 0179575 088.7678 042.9946 14.53755607357482
0 FENGYUN 1C DEB
1 30418U 99025AEH 13292.72505769  .00003260  00000-0  63855-3 0  9316
2 30418 098.8461 076.1624 0179564 085.4979 326.5019 14.53761732357644
0 FENGYUN 1C DEB
1 30418U 99025AEH 13294.10366669  .00003455  00000-0  67604-3 0  9327
2 30418 098.8465 077.6190 0179510 081.3460 341.5056 14.53768652357841
0 FENGYUN 1C DEB
1 30418U 99025AEH 13295.34154189  .00003501  00000-0  68488-3 0  9330
2 30418 098.8464 078.9268 0179442 077.5989 340.0202 14.53775960358025
